SL-14 R/B               
1 16792U 86046B   25343.00974428  .00000787  00000+0  88000-4 0  9991
2 16792  82.4811 165.8369 0023474 164.2876 195.9074 14.85478097112948
SL-14 R/B               
1 16882U 86055B   25343.09260191  .00000727  00000+0  81265-4 0  9995
2 16882  82.5209 211.7997 0017462 272.5736 240.3205 14.85525298105912
AJISAI (EGS)            
1 16908U 86061A   25343.13598925 -.00000091  00000+0  44270-4 0  9995
2 16908  50.0114  11.7985 0011292  56.8810  42.7776 12.44514214456726
COSMOS 1812             
1 17295U 87003A   25342.91833149  .00101347  00000+0  69087-3 0  9994
2 17295  82.4869 296.1496 0007321  92.0389 268.1714 15.74497954130057
SL-14 R/B               
1 17567U 87024B   25343.00868834  .00000712  00000+0  78506-4 0  9990
2 17567  82.5278 177.9595 0017763 196.7974 163.2657 14.86017453 74662
COSMOS 1833             
1 17589U 87027A   25342.89506111  .00000098  00000+0  78017-4 0  9994
2 17589  70.9134 156.8596 0022371 337.1016  22.9106 14.13020017997488
SL-16 R/B               
1 17590U 87027B   25342.77910047 -.00000084  00000+0 -17777-4 0  9993
2 17590  71.0026 108.0635 0007495 263.7975  96.2295 14.17152412  2460
SL-14 R/B               
1 17912U 87038B   25343.15918699  .00000659  00000+0  73691-4 0  9990
2 17912  82.5019  22.0735 0020852 103.0666 257.2879 14.85256001 65794
COSMOS 1844             
1 17973U 87041A   25343.09690564 -.00000140  00000+0 -47467-4 0  9991
2 17973  70.8982 225.2547 0030180 162.9621 197.2521 14.14526270990770
SL-14 R/B               
1 18153U 87055B   25342.74754185  .00000826  00000+0  92652-4 0  9993
2 18153  82.5001  74.7505 0019624 317.3130  42.6561 14.85514507 56436
COSMOS 1867             
1 18187U 87060A   25343.03988317  .00000013  00000+0  42574-4 0  9991
2 18187  65.0096 200.5638 0013640 270.7226  89.2295 14.31485205  6966
SL-14 R/B               
1 18749U 88001B   25342.93894597  .00000805  00000+0  90381-4 0  9993
2 18749  82.5129 280.7221 0018121 173.5009 186.6446 14.85417181 28553
