CCSDS_OMM_VERS = 2.0
CREATION_DATE  = 
ORIGINATOR     = 

OBJECT_NAME    = SL-14 R/B
OBJECT_ID      = 1986-046B
CENTER_NAME    = EARTH
REF_FRAME      = TEME
TIME_SYSTEM    = UTC
MEAN_ELEMENT_THEORY = SGP/SGP4

EPOCH          = 2025-12-09T00:14:01.905792
MEAN_MOTION    = 14.85478097
ECCENTRICITY   = .0023474
INCLINATION    = 82.4811
RA_OF_ASC_NODE = 165.8369
ARG_OF_PERICENTER = 164.2876
MEAN_ANOMALY   = 195.9074

EPHEMERIS_TYPE = 0
CLASSIFICATION_TYPE = U
NORAD_CAT_ID   = 16792
ELEMENT_SET_NO = 999
REV_AT_EPOCH   = 11294
BSTAR          = .88E-4
MEAN_MOTION_DOT = .787E-5
MEAN_MOTION_DDOT = 0

CCSDS_OMM_VERS = 2.0
CREATION_DATE  = 
ORIGINATOR     = 

OBJECT_NAME    = SL-14 R/B
OBJECT_ID      = 1986-055B
CENTER_NAME    = EARTH
REF_FRAME      = TEME
TIME_SYSTEM    = UTC
MEAN_ELEMENT_THEORY = SGP/SGP4

EPOCH          = 2025-12-09T02:13:20.805024
MEAN_MOTION    = 14.85525298
ECCENTRICITY   = .0017462
INCLINATION    = 82.5209
RA_OF_ASC_NODE = 211.7997
ARG_OF_PERICENTER = 272.5736
MEAN_ANOMALY   = 240.3205

EPHEMERIS_TYPE = 0
CLASSIFICATION_TYPE = U
NORAD_CAT_ID   = 16882
ELEMENT_SET_NO = 999
REV_AT_EPOCH   = 10591
BSTAR          = .81265E-4
MEAN_MOTION_DOT = .727E-5
MEAN_MOTION_DDOT = 0

CCSDS_OMM_VERS = 2.0
CREATION_DATE  = 
ORIGINATOR     = 

OBJECT_NAME    = AJISAI (EGS)
OBJECT_ID      = 1986-061A
CENTER_NAME    = EARTH
REF_FRAME      = TEME
TIME_SYSTEM    = UTC
MEAN_ELEMENT_THEORY = SGP/SGP4

EPOCH          = 2025-12-09T03:15:49.471200
MEAN_MOTION    = 12.44514214
ECCENTRICITY   = .0011292
INCLINATION    = 50.0114
RA_OF_ASC_NODE = 11.7985
ARG_OF_PERICENTER = 56.8810
MEAN_ANOMALY   = 42.7776

EPHEMERIS_TYPE = 0
CLASSIFICATION_TYPE = U
NORAD_CAT_ID   = 16908
ELEMENT_SET_NO = 999
REV_AT_EPOCH   = 45672
BSTAR          = .4427E-4
MEAN_MOTION_DOT = -.91E-6
MEAN_MOTION_DDOT = 0

CCSDS_OMM_VERS = 2.0
CREATION_DATE  = 
ORIGINATOR     = 

OBJECT_NAME    = COSMOS 1812
OBJECT_ID      = 1987-003A
CENTER_NAME    = EARTH
REF_FRAME      = TEME
TIME_SYSTEM    = UTC
MEAN_ELEMENT_THEORY = SGP/SGP4

EPOCH          = 2025-12-08T22:02:23.840736
MEAN_MOTION    = 15.74497954
ECCENTRICITY   = .0007321
INCLINATION    = 82.4869
RA_OF_ASC_NODE = 296.1496
ARG_OF_PERICENTER = 92.0389
MEAN_ANOMALY   = 268.1714

EPHEMERIS_TYPE = 0
CLASSIFICATION_TYPE = U
NORAD_CAT_ID   = 17295
ELEMENT_SET_NO = 999
REV_AT_EPOCH   = 13005
BSTAR          = .69087E-3
MEAN_MOTION_DOT = .101347E-2
MEAN_MOTION_DDOT = 0

CCSDS_OMM_VERS = 2.0
CREATION_DATE  = 
ORIGINATOR     = 

OBJECT_NAME    = SL-14 R/B
OBJECT_ID      = 1987-024B
CENTER_NAME    = EARTH
REF_FRAME      = TEME
TIME_SYSTEM    = UTC
MEAN_ELEMENT_THEORY = SGP/SGP4

EPOCH          = 2025-12-09T00:12:30.672576
MEAN_MOTION    = 14.86017453
ECCENTRICITY   = .0017763
INCLINATION    = 82.5278
RA_OF_ASC_NODE = 177.9595
ARG_OF_PERICENTER = 196.7974
MEAN_ANOMALY   = 163.2657

EPHEMERIS_TYPE = 0
CLASSIFICATION_TYPE = U
NORAD_CAT_ID   = 17567
ELEMENT_SET_NO = 999
REV_AT_EPOCH   = 7466
BSTAR          = .78506E-4
MEAN_MOTION_DOT = .712E-5
MEAN_MOTION_DDOT = 0

CCSDS_OMM_VERS = 2.0
CREATION_DATE  = 
ORIGINATOR     = 

OBJECT_NAME    = COSMOS 1833
OBJECT_ID      = 1987-027A
CENTER_NAME    = EARTH
REF_FRAME      = TEME
TIME_SYSTEM    = UTC
MEAN_ELEMENT_THEORY = SGP/SGP4

EPOCH          = 2025-12-08T21:28:53.279904
MEAN_MOTION    = 14.13020017
ECCENTRICITY   = .0022371
INCLINATION    = 70.9134
RA_OF_ASC_NODE = 156.8596
ARG_OF_PERICENTER = 337.1016
MEAN_ANOMALY   = 22.9106

EPHEMERIS_TYPE = 0
CLASSIFICATION_TYPE = U
NORAD_CAT_ID   = 17589
ELEMENT_SET_NO = 999
REV_AT_EPOCH   = 99748
BSTAR          = .78017E-4
MEAN_MOTION_DOT = .98E-6
MEAN_MOTION_DDOT = 0

CCSDS_OMM_VERS = 2.0
CREATION_DATE  = 
ORIGINATOR     = 

OBJECT_NAME    = SL-16 R/B
OBJECT_ID      = 1987-027B
CENTER_NAME    = EARTH
REF_FRAME      = TEME
TIME_SYSTEM    = UTC
MEAN_ELEMENT_THEORY = SGP/SGP4

EPOCH          = 2025-12-08T18:41:54.280608
MEAN_MOTION    = 14.17152412
ECCENTRICITY   = .0007495
INCLINATION    = 71.0026
RA_OF_ASC_NODE = 108.0635
ARG_OF_PERICENTER = 263.7975
MEAN_ANOMALY   = 96.2295

EPHEMERIS_TYPE = 0
CLASSIFICATION_TYPE = U
NORAD_CAT_ID   = 17590
ELEMENT_SET_NO = 999
REV_AT_EPOCH   = 246
BSTAR          = -.17777415E-4
MEAN_MOTION_DOT = -.84E-6
MEAN_MOTION_DDOT = 0

CCSDS_OMM_VERS = 2.0
CREATION_DATE  = 
ORIGINATOR     = 

OBJECT_NAME    = SL-14 R/B
OBJECT_ID      = 1987-038B
CENTER_NAME    = EARTH
REF_FRAME      = TEME
TIME_SYSTEM    = UTC
MEAN_ELEMENT_THEORY = SGP/SGP4

EPOCH          = 2025-12-09T03:49:13.755936
MEAN_MOTION    = 14.85256001
ECCENTRICITY   = .0020852
INCLINATION    = 82.5019
RA_OF_ASC_NODE = 22.0735
ARG_OF_PERICENTER = 103.0666
MEAN_ANOMALY   = 257.2879

EPHEMERIS_TYPE = 0
CLASSIFICATION_TYPE = U
NORAD_CAT_ID   = 17912
ELEMENT_SET_NO = 999
REV_AT_EPOCH   = 6579
BSTAR          = .73691E-4
MEAN_MOTION_DOT = .659E-5
MEAN_MOTION_DDOT = 0

CCSDS_OMM_VERS = 2.0
CREATION_DATE  = 
ORIGINATOR     = 

OBJECT_NAME    = COSMOS 1844
OBJECT_ID      = 1987-041A
CENTER_NAME    = EARTH
REF_FRAME      = TEME
TIME_SYSTEM    = UTC
MEAN_ELEMENT_THEORY = SGP/SGP4

EPOCH          = 2025-12-09T02:19:32.647296
MEAN_MOTION    = 14.14526270
ECCENTRICITY   = .003018
INCLINATION    = 70.8982
RA_OF_ASC_NODE = 225.2547
ARG_OF_PERICENTER = 162.9621
MEAN_ANOMALY   = 197.2521

EPHEMERIS_TYPE = 0
CLASSIFICATION_TYPE = U
NORAD_CAT_ID   = 17973
ELEMENT_SET_NO = 999
REV_AT_EPOCH   = 99077
BSTAR          = -.47467E-4
MEAN_MOTION_DOT = -.14E-5
MEAN_MOTION_DDOT = 0

CCSDS_OMM_VERS = 2.0
CREATION_DATE  = 
ORIGINATOR     = 

OBJECT_NAME    = SL-14 R/B
OBJECT_ID      = 1987-055B
CENTER_NAME    = EARTH
REF_FRAME      = TEME
TIME_SYSTEM    = UTC
MEAN_ELEMENT_THEORY = SGP/SGP4

EPOCH          = 2025-12-08T17:56:27.615840
MEAN_MOTION    = 14.85514507
ECCENTRICITY   = .0019624
INCLINATION    = 82.5001
RA_OF_ASC_NODE = 74.7505
ARG_OF_PERICENTER = 317.3130
MEAN_ANOMALY   = 42.6561

EPHEMERIS_TYPE = 0
CLASSIFICATION_TYPE = U
NORAD_CAT_ID   = 18153
ELEMENT_SET_NO = 999
REV_AT_EPOCH   = 5643
BSTAR          = .92652E-4
MEAN_MOTION_DOT = .826E-5
MEAN_MOTION_DDOT = 0

CCSDS_OMM_VERS = 2.0
CREATION_DATE  = 
ORIGINATOR     = 

OBJECT_NAME    = COSMOS 1867
OBJECT_ID      = 1987-060A
CENTER_NAME    = EARTH
REF_FRAME      = TEME
TIME_SYSTEM    = UTC
MEAN_ELEMENT_THEORY = SGP/SGP4

EPOCH          = 2025-12-09T00:57:25.905888
MEAN_MOTION    = 14.31485205
ECCENTRICITY   = .001364
INCLINATION    = 65.0096
RA_OF_ASC_NODE = 200.5638
ARG_OF_PERICENTER = 270.7226
MEAN_ANOMALY   = 89.2295

EPHEMERIS_TYPE = 0
CLASSIFICATION_TYPE = U
NORAD_CAT_ID   = 18187
ELEMENT_SET_NO = 999
REV_AT_EPOCH   = 696
BSTAR          = .42574E-4
MEAN_MOTION_DOT = .13E-6
MEAN_MOTION_DDOT = 0

CCSDS_OMM_VERS = 2.0
CREATION_DATE  = 
ORIGINATOR     = 

OBJECT_NAME    = SL-14 R/B
OBJECT_ID      = 1988-001B
CENTER_NAME    = EARTH
REF_FRAME      = TEME
TIME_SYSTEM    = UTC
MEAN_ELEMENT_THEORY = SGP/SGP4

EPOCH          = 2025-12-08T22:32:04.931808
MEAN_MOTION    = 14.85417181
ECCENTRICITY   = .0018121
INCLINATION    = 82.5129
RA_OF_ASC_NODE = 280.7221
ARG_OF_PERICENTER = 173.5009
MEAN_ANOMALY   = 186.6446

EPHEMERIS_TYPE = 0
CLASSIFICATION_TYPE = U
NORAD_CAT_ID   = 18749
ELEMENT_SET_NO = 999
REV_AT_EPOCH   = 2855
BSTAR          = .90381E-4
MEAN_MOTION_DOT = .805E-5
MEAN_MOTION_DDOT = 0

